NORAD_CAT_ID,OBJECT_NAME,OBJECT_TYPE,EPOCH,MEAN_MOTION,ECCENTRICITY,INCLINATION,RA_OF_ASC_NODE,ARG_OF_PERICENTER,MEAN_ANOMALY,BSTAR,MEAN_MOTION_DOT,MEAN_MOTION_DDOT,TLE_LINE0,TLE_LINE1,TLE_LINE2,SEMIMAJOR_AXIS,PERIOD,APOGEE,PERIGEE,DECAYED
54184.0,STARLINK-5162,PAYLOAD,2024-07-30 22:39:31,15.08844651,0.0001343,53.2183,118.4849,104.1824,255.9318,0.00035603,5.384e-05,0.0,0 STARLINK-5162,1 54184U 22141AD  24212.94411344  .00005384  00000-0  35603-3 0  9993,2 54184  53.2183 118.4849 0001343 104.1824 255.9318 15.08844651 97272,6917.866,95.437,540.66,538.802,0.0
54184.0,STARLINK-5162,PAYLOAD,2024-07-31 00:14:54,15.08852476,0.0001694,53.2182,118.1868,113.6184,246.4986,0.00021087,3.071e-05,0.0,0 STARLINK-5162,1 54184U 22141AD  24213.01034873  .00003071  00000-0  21087-3 0  9992,2 54184  53.2182 118.1868 0001694 113.6184 246.4986 15.08852476 97519,6917.842,95.437,540.879,538.535,0.0
54184.0,STARLINK-5162,PAYLOAD,2024-07-31 20:54:55,15.08826954,0.0001435,53.2164,114.326,93.9304,266.1852,-9.581e-05,-1.812e-05,0.0,0 STARLINK-5162,1 54184U 22141AD  24213.87148005 -.00001812  00000-0 -95810-4 0  9998,2 54184  53.2164 114.3260 0001435  93.9304 266.1852 15.08826954 97647,6917.92,95.438,540.778,538.793,0.0
54184.0,STARLINK-5162,PAYLOAD,2024-07-31 22:30:19,15.0882868,0.000157,53.2167,114.0285,93.5861,266.5311,-7.9599e-05,-1.554e-05,0.0,0 STARLINK-5162,1 54184U 22141AD  24213.93772003 -.00001554  00000-0 -79599-4 0  9995,2 54184  53.2167 114.0285 0001570  93.5861 266.5311 15.08828680 97426,6917.915,95.438,540.866,538.694,0.0
54184.0,STARLINK-5162,PAYLOAD,2024-08-01 00:05:42,15.08830885,0.0001444,53.2169,113.7279,106.1181,253.997,3.1196e-05,2.08e-06,0.0,0 STARLINK-5162,1 54184U 22141AD  24214.00395908  .00000208  00000-0  31196-4 0  9993,2 54184  53.2169 113.7279 0001444 106.1181 253.9970 15.08830885 97435,6917.908,95.438,540.772,538.774,0.0
54184.0,STARLINK-5162,PAYLOAD,2024-08-01 20:45:42,15.0884414,0.000128,53.2163,109.8654,94.0629,266.0509,0.00013232,1.819e-05,0.0,0 STARLINK-5162,1 54184U 22141AD  24214.86507234  .00001819  00000-0  13232-3 0  9993,2 54184  53.2163 109.8654 0001280  94.0629 266.0509 15.08844140 97793,6917.868,95.437,540.618,538.847,0.0
54184.0,STARLINK-5162,PAYLOAD,2024-08-01 22:21:05,15.08846999,0.000136,53.2166,109.5682,97.4127,262.702,0.0001696,2.413e-05,0.0,0 STARLINK-5162,1 54184U 22141AD  24214.93131064  .00002413  00000-0  16960-3 0  9997,2 54184  53.2166 109.5682 0001360  97.4127 262.7020 15.08846999 97574,6917.859,95.437,540.665,538.783,0.0
54184.0,STARLINK-5162,PAYLOAD,2024-08-02 09:28:46,15.0886503,0.0001585,53.2182,107.4863,122.0267,238.0879,0.00032955,4.964e-05,0.0,0 STARLINK-5162,1 54184U 22141AD  24215.39497788  .00004964  00000-0  32955-3 0  9991,2 54184  53.2182 107.4863 0001585 122.0267 238.0879 15.08865030 97877,6917.804,95.436,540.765,538.572,0.0
54184.0,STARLINK-5162,PAYLOAD,2024-08-02 20:36:29,15.08824319,0.0001427,53.2177,105.405,97.7151,262.4004,-0.00011785,-2.162e-05,0.0,0 STARLINK-5162,1 54184U 22141AD  24215.85867980 -.00002162  00000-0 -11785-3 0  9995,2 54184  53.2177 105.4050 0001427  97.7151 262.4004 15.08824319 97946,6917.928,95.439,540.781,538.806,0.0
54184.0,STARLINK-5162,PAYLOAD,2024-08-02 22:11:52,15.08827986,0.0001458,53.2178,105.1079,98.6359,261.4798,-0.00016046,-2.84e-05,0.0,0 STARLINK-5162,1 54184U 22141AD  24215.92491747 -.00002840  00000-0 -16046-3 0  9995,2 54184  53.2178 105.1079 0001458  98.6359 261.4798 15.08827986 97727,6917.917,95.438,540.791,538.773,0.0
54184.0,STARLINK-5162,PAYLOAD,2024-08-03 02:58:02,15.0883373,0.0001408,53.2178,104.2155,94.2575,265.8578,0.00025808,3.821e-05,0.0,0 STARLINK-5162,1 54184U 22141AD  24216.12363570  .00003821  00000-0  25808-3 0  9994,2 54184  53.2178 104.2155 0001408  94.2575 265.8578 15.08833730 97985,6917.9,95.438,540.739,538.791,0.0
54184.0,STARLINK-5162,PAYLOAD,2024-08-03 09:19:34,15.08839234,0.0001467,53.2181,103.0268,98.1493,261.9666,0.00098084,0.00015356,0.0,0 STARLINK-5162,1 54184U 22141AD  24216.38859739  .00015356  00000-0  98084-3 0  9991,2 54184  53.2181 103.0268 0001467  98.1493 261.9666 15.08839234 97797,6917.883,95.438,540.763,538.733,0.0
54184.0,STARLINK-5162,PAYLOAD,2024-08-03 22:02:40,15.08831968,0.0001736,53.2189,100.6498,102.9897,257.1289,0.00040807,6.211e-05,0.0,0 STARLINK-5162,1 54184U 22141AD  24216.91852353  .00006211  00000-0  40807-3 0  9995,2 54184  53.2189 100.6498 0001736 102.9897 257.1289 15.08831968 97877,6917.905,95.438,540.971,538.569,0.0
54184.0,STARLINK-5162,PAYLOAD,2024-08-04 02:48:49,15.08844577,0.0001669,53.2183,99.7565,109.387,250.7303,0.00078295,0.00012196,0.0,0 STARLINK-5162,1 54184U 22141AD  24217.11723994  .00012196  00000-0  78295-3 0  9997,2 54184  53.2183  99.7565 0001669 109.3870 250.7303 15.08844577 97901,6917.866,95.437,540.886,538.577,0.0
54184.0,STARLINK-5162,PAYLOAD,2024-08-04 20:18:04,15.08853308,0.000189,53.2164,96.4853,116.6085,243.5101,0.00098927,0.00015497,0.0,0 STARLINK-5162,1 54184U 22141AD  24217.84588066  .00015497  00000-0  98927-3 0  9997,2 54184  53.2164  96.4853 0001890 116.6085 243.5101 15.08853308 98245,6917.84,95.437,541.012,538.397,0.0
54184.0,STARLINK-5162,PAYLOAD,2024-08-04 21:53:27,15.08850633,0.0001158,53.2155,96.185,96.5584,263.554,0.00050542,7.767e-05,0.0,0 STARLINK-5162,1 54184U 22141AD  24217.91212002  .00007767  00000-0  50542-3 0  9991,2 54184  53.2155  96.1850 0001158  96.5584 263.5540 15.08850633 98029,6917.848,95.437,540.514,538.912,0.0
54184.0,STARLINK-5162,PAYLOAD,2024-08-05 21:44:14,15.08813464,0.0001111,53.2154,91.7264,79.7737,280.338,-0.00048644,-8.015e-05,0.0,0 STARLINK-5162,1 54184U 22141AD  24218.90572656 -.00008015  00000-0 -48644-3 0  9994,2 54184  53.2154  91.7264 0001111  79.7737 280.3380 15.08813464 98402,6917.962,95.439,540.595,539.058,0.0
54184.0,STARLINK-5162,PAYLOAD,2024-08-06 15:13:29,15.08845797,0.0001278,53.2152,88.4533,74.0965,286.0168,0.00076546,0.00011917,0.0,0 STARLINK-5162,1 54184U 22141AD  24219.63436900  .00011917  00000-0  76546-3 0  9991,2 54184  53.2152  88.4533 0001278  74.0965 286.0168 15.08845797 98284,6917.863,95.437,540.612,538.844,0.0
54184.0,STARLINK-5162,PAYLOAD,2024-08-06 19:59:38,15.0886235,0.0001347,53.2152,87.5624,68.6188,291.4948,0.0017671,0.00027965,0.0,0 STARLINK-5162,1 54184U 22141AD  24219.83308923  .00027965  00000-0  17671-2 0  9999,2 54184  53.2152  87.5624 0001347  68.6188 291.4948 15.08862350 98547,6917.812,95.436,540.609,538.745,0.0
54184.0,STARLINK-5162,PAYLOAD,2024-08-06 21:35:01,15.08870124,0.0001322,53.2152,87.2652,67.5353,292.5779,0.0019789,0.00031373,0.0,0 STARLINK-5162,1 54184U 22141AD  24219.89932772  .00031373  00000-0  19789-2 0  9990,2 54184  53.2152  87.2652 0001322  67.5353 292.5779 15.08870124 98328,6917.788,95.436,540.568,538.739,0.0
54184.0,STARLINK-5162,PAYLOAD,2024-08-07 00:45:47,15.08880787,0.0001302,53.2152,86.6698,69.3058,290.8074,0.0021264,0.00033754,0.0,0 STARLINK-5162,1 54184U 22141AD  24220.03180420  .00033754  00000-0  21264-2 0  9999,2 54184  53.2152  86.6698 0001302  69.3058 290.8074 15.08880787 98573,6917.756,95.435,540.521,538.72,0.0
54184.0,STARLINK-5162,PAYLOAD,2024-08-07 19:50:25,15.08852406,5.5e-05,53.2152,83.1014,56.1432,303.9613,0.0011043,0.00017337,0.0,0 STARLINK-5162,1 54184U 22141AD  24220.82668051  .00017337  00000-0  11043-2 0  9990,2 54184  53.2152  83.1014 0000550  56.1432 303.9613 15.08852406 98696,6917.842,95.437,540.088,539.327,0.0
54184.0,STARLINK-5162,PAYLOAD,2024-08-08 19:41:12,15.08864904,0.000142,53.2168,78.6391,131.8572,228.2541,0.0019816,0.00031412,0.0,0 STARLINK-5162,1 54184U 22141AD  24221.82028182  .00031412  00000-0  19816-2 0  9992,2 54184  53.2168  78.6391 0001420 131.8572 228.2541 15.08864904 98845,6917.804,95.436,540.652,538.687,0.0
54184.0,STARLINK-5162,PAYLOAD,2024-08-09 00:27:21,15.08857984,0.0001119,53.217,77.7498,97.5961,262.5158,0.0011498,0.00018067,0.0,0 STARLINK-5162,1 54184U 22141AD  24222.01900174  .00018067  00000-0  11498-2 0  9993,2 54184  53.2170  77.7498 0001119  97.5961 262.5158 15.08857984 98879,6917.825,95.436,540.465,538.916,0.0
54184.0,STARLINK-5162,PAYLOAD,2024-08-09 14:45:49,15.08848079,0.000163,53.2165,75.0653,120.7185,239.3968,0.00062942,9.746e-05,0.0,0 STARLINK-5162,1 54184U 22141AD  24222.61516147  .00009746  00000-0  62942-3 0  9997,2 54184  53.2165  75.0653 0001630 120.7185 239.3968 15.08848079 98733,6917.856,95.437,540.848,538.593,0.0
54184.0,STARLINK-5162,PAYLOAD,2024-08-09 19:31:59,15.08843863,0.000105,53.2173,74.1817,96.7008,263.4104,0.00032482,4.886e-05,0.0,0 STARLINK-5162,1 54184U 22141AD  24222.81388340  .00004886  00000-0  32482-3 0  9997,2 54184  53.2173  74.1817 0001050  96.7008 263.4104 15.08843863 98990,6917.869,95.437,540.46,539.007,0.0
54184.0,STARLINK-5162,PAYLOAD,2024-08-09 21:07:22,15.08844945,0.0001033,53.2171,73.8843,96.6007,263.5103,0.0003117,4.677e-05,0.0,0 STARLINK-5162,1 54184U 22141AD  24222.88012368  .00004677  00000-0  31170-3 0  9999,2 54184  53.2171  73.8843 0001033  96.6007 263.5103 15.08844945 98770,6917.865,95.437,540.445,539.016,0.0
54184.0,STARLINK-5162,PAYLOAD,2024-08-10 13:01:12,15.08875506,0.0001033,53.2168,70.903,129.4128,230.6956,0.00078865,0.00012298,0.0,0 STARLINK-5162,1 54184U 22141AD  24223.54250463  .00012298  00000-0  78865-3 0  9993,2 54184  53.2168  70.9030 0001033 129.4128 230.6956 15.08875506 99107,6917.772,95.435,540.351,538.922,0.0
54184.0,STARLINK-5162,PAYLOAD,2024-08-10 14:36:35,15.08882803,8.64e-05,53.2167,70.6131,78.5908,281.5182,0.00093361,0.00014619,0.0,0 STARLINK-5162,1 54184U 22141AD  24223.60874099  .00014619  00000-0  93361-3 0  9994,2 54184  53.2167  70.6131 0000864  78.5908 281.5182 15.08882803 98884,6917.75,95.435,540.212,539.017,0.0
54184.0,STARLINK-5162,PAYLOAD,2024-08-10 20:58:10,15.08810425,0.0001244,53.2171,69.4185,97.3835,262.7298,-0.00046092,-7.61e-05,0.0,0 STARLINK-5162,1 54184U 22141AD  24223.87373322 -.00007610  00000-0 -46092-3 0  9990,2 54184  53.2171  69.4185 0001244  97.3835 262.7298 15.08810425 99156,6917.971,95.439,540.696,538.975,0.0
